[{"OBJECT_NAME":"STARLINK-35082","OBJECT_ID":"2025-191P","EPOCH":"2026-03-09T14:49:26.748480","MEAN_MOTION":15.05643938,"ECCENTRICITY":0.0002353,"INCLINATION":97.6018,"RA_OF_ASC_NODE":301.5343,"ARG_OF_PERICENTER":80.709,"MEAN_ANOMALY":279.4403,"EPHEMERIS_TYPE":0,"CLASSIFICATION_TYPE":"U","NORAD_CAT_ID":65392,"ELEMENT_SET_NO":999,"REV_AT_EPOCH":3026,"BSTAR":6.7413e-5,"MEAN_MOTION_DOT":9.12e-6,"MEAN_MOTION_DDOT":0},{"OBJECT_NAME":"DIAMANT DEB","OBJECT_ID":"1967-014C","EPOCH":"2026-03-07T10:00:52.471872","MEAN_MOTION":14.08335033,"ECCENTRICITY":0.04404535,"INCLINATION":39.955,"RA_OF_ASC_NODE":162.5873,"ARG_OF_PERICENTER":146.5113,"MEAN_ANOMALY":216.4329,"EPHEMERIS_TYPE":0,"CLASSIFICATION_TYPE":"U","NORAD_CAT_ID":2684,"ELEMENT_SET_NO":999,"REV_AT_EPOCH":92662,"BSTAR":0.001598728,"MEAN_MOTION_DOT":6.727e-5,"MEAN_MOTION_DDOT":0}]
